[{"OBJECT_NAME":"STARLINK-32579","OBJECT_ID":"2024-207L","EPOCH":"2026-03-08T23:55:51.692448","MEAN_MOTION":15.27614477,"ECCENTRICITY":0.00012096,"INCLINATION":42.9981,"RA_OF_ASC_NODE":289.335,"ARG_OF_PERICENTER":287.7263,"MEAN_ANOMALY":72.3457,"EPHEMERIS_TYPE":0,"CLASSIFICATION_TYPE":"U","NORAD_CAT_ID":61922,"ELEMENT_SET_NO":999,"REV_AT_EPOCH":7457,"BSTAR":0.001259509,"MEAN_MOTION_DOT":0.00034596,"MEAN_MOTION_DDOT":0},{"OBJECT_NAME":"FREGAT DEB","OBJECT_ID":"2011-037LS","EPOCH":"2026-03-09T08:54:22.917312","MEAN_MOTION":11.92158719,"ECCENTRICITY":0.15355515,"INCLINATION":51.4914,"RA_OF_ASC_NODE":189.2565,"ARG_OF_PERICENTER":293.3488,"MEAN_ANOMALY":51.3308,"EPHEMERIS_TYPE":0,"CLASSIFICATION_TYPE":"U","NORAD_CAT_ID":46411,"ELEMENT_SET_NO":999,"REV_AT_EPOCH":23768,"BSTAR":0.0033127922,"MEAN_MOTION_DOT":0.00011599,"MEAN_MOTION_DDOT":0}]
